FLOCK 4BE-8             
1 60515U 24149AZ  26073.72954843  .00520833  00000+0  22823-2 0  9996
2 60515  97.3656 160.8875 0005650 263.1222  96.9404 15.83310844 88054
FLOCK 4BE-6             
1 60516U 24149BA  26073.79448235  .00019853  00000+0  55328-3 0  9999
2 60516  97.3827 156.8700 0002455 260.9916  99.1051 15.36812995 87764
FLOCK 4BE-14            
1 60517U 24149BB  26073.72448634  .00022279  00000+0  59929-3 0  9993
2 60517  97.3732 156.8741 0003353 262.9001  97.1863 15.37887702 87791
FLOCK 4BE-1             
1 60518U 24149BC  26073.70181640  .00027273  00000+0  70194-3 0  9999
2 60518  97.3816 157.8105 0003361 259.4116 100.6751 15.39207617 87820
FLOCK 4BE-28            
1 60519U 24149BD  26073.72141554  .00029641  00000+0  71244-3 0  9990
2 60519  97.3775 158.2786 0003480 261.8223  98.2629 15.41275495 87876
IPERDRONE.0             
1 60520U 24149BE  26073.79894221  .00069161  00000+0  10142-2 0  9995
2 60520  97.3811 163.2184 0003330 217.6443 142.4579 15.55306429 88193
TRANSPORTER-11 OBJECT BF
1 60521U 24149BF  26073.64605469  .00104623  00000+0  12410-2 0  9997
2 60521  97.3818 164.3166 0003598 222.2122 137.8859 15.60853522 88247
CONNECTA IOT-2          
1 60522U 24149BG  26073.93169513  .00006284  00000+0  26944-3 0  9997
2 60522  97.3886 153.5507 0005029 302.6111  57.4640 15.23086027 87548
PTD-R (TYVAK-0127)      
1 60523U 24149BH  26073.71959963  .00200538  00000+0  15443-2 0  9999
2 60523  97.3754 167.2466 0004498 238.3341 121.7484 15.71376876 88468
CONNECTA IOT-4          
1 60524U 24149BJ  26073.95066417  .00023064  00000+0  60456-3 0  9991
2 60524  97.3833 157.4469 0004679 264.6451  95.4261 15.38673876 87828
ORESAT0.5               
1 60525U 24149BK  26073.71203237  .00028103  00000+0  67306-3 0  9999
2 60525  97.3754 158.5211 0004739 251.7947 108.2784 15.41389730 87901
DEIMOS                  
1 60526U 24149BL  26073.95683537  .00023661  00000+0  58009-3 0  9995
2 60526  97.3814 158.9447 0004576 259.2547 100.8184 15.40716131 87924
CUAVA-2                 
1 60527U 24149BM  26073.95004715  .00017194  00000+0  52779-3 0  9993
2 60527  97.3770 155.4589 0005758 267.7043  92.3540 15.33787792 87714
ERNST                   
1 60528U 24149BN  26073.69535031  .00021012  00000+0  59002-3 0  9995
2 60528  97.3843 156.8842 0004854 272.0278  88.0410 15.36556995 87752
TORO                    
1 60530U 24149BQ  26073.67764316  .00003052  00000+0  27684-3 0  9991
2 60530  97.6843 150.1129 0001204  96.7236 263.4122 14.96041339 85825
HYPSO-2                 
1 60531U 24149BR  26073.45037985  .00002772  00000+0  23791-3 0  9996
2 60531  97.6886 151.1067 0000832  66.0066 294.1243 14.98290407 85865
