[{"OBJECT_NAME":"FLOCK 4BE-8","OBJECT_ID":"2024-149AZ","EPOCH":"2026-03-14T17:30:32.984352","MEAN_MOTION":15.83310844,"ECCENTRICITY":0.00056504,"INCLINATION":97.3656,"RA_OF_ASC_NODE":160.8875,"ARG_OF_PERICENTER":263.1222,"MEAN_ANOMALY":96.9404,"EPHEMERIS_TYPE":0,"CLASSIFICATION_TYPE":"U","NORAD_CAT_ID":60515,"ELEMENT_SET_NO":999,"REV_AT_EPOCH":8805,"BSTAR":0.0022822843,"MEAN_MOTION_DOT":0.00520833,"MEAN_MOTION_DDOT":0},{"OBJECT_NAME":"FLOCK 4BE-6","OBJECT_ID":"2024-149BA","EPOCH":"2026-03-14T19:04:03.275040","MEAN_MOTION":15.36812995,"ECCENTRICITY":0.00024553,"INCLINATION":97.3827,"RA_OF_ASC_NODE":156.87,"ARG_OF_PERICENTER":260.9916,"MEAN_ANOMALY":99.1051,"EPHEMERIS_TYPE":0,"CLASSIFICATION_TYPE":"U","NORAD_CAT_ID":60516,"ELEMENT_SET_NO":999,"REV_AT_EPOCH":8776,"BSTAR":0.00055327557,"MEAN_MOTION_DOT":0.00019853,"MEAN_MOTION_DDOT":0},{"OBJECT_NAME":"FLOCK 4BE-14","OBJECT_ID":"2024-149BB","EPOCH":"2026-03-14T17:23:15.619776","MEAN_MOTION":15.37887702,"ECCENTRICITY":0.00033537,"INCLINATION":97.3732,"RA_OF_ASC_NODE":156.8741,"ARG_OF_PERICENTER":262.9001,"MEAN_ANOMALY":97.1863,"EPHEMERIS_TYPE":0,"CLASSIFICATION_TYPE":"U","NORAD_CAT_ID":60517,"ELEMENT_SET_NO":999,"REV_AT_EPOCH":8779,"BSTAR":0.00059929333,"MEAN_MOTION_DOT":0.00022279,"MEAN_MOTION_DDOT":0},{"OBJECT_NAME":"FLOCK 4BE-1","OBJECT_ID":"2024-149BC","EPOCH":"2026-03-14T16:50:36.936960","MEAN_MOTION":15.39207617,"ECCENTRICITY":0.00033617,"INCLINATION":97.3816,"RA_OF_ASC_NODE":157.8105,"ARG_OF_PERICENTER":259.4116,"MEAN_ANOMALY":100.6751,"EPHEMERIS_TYPE":0,"CLASSIFICATION_TYPE":"U","NORAD_CAT_ID":60518,"ELEMENT_SET_NO":999,"REV_AT_EPOCH":8782,"BSTAR":0.00070194237,"MEAN_MOTION_DOT":0.00027273,"MEAN_MOTION_DDOT":0},{"OBJECT_NAME":"FLOCK 4BE-28","OBJECT_ID":"2024-149BD","EPOCH":"2026-03-14T17:18:50.302656","MEAN_MOTION":15.41275495,"ECCENTRICITY":0.00034808,"INCLINATION":97.3775,"RA_OF_ASC_NODE":158.2786,"ARG_OF_PERICENTER":261.8223,"MEAN_ANOMALY":98.2629,"EPHEMERIS_TYPE":0,"CLASSIFICATION_TYPE":"U","NORAD_CAT_ID":60519,"ELEMENT_SET_NO":999,"REV_AT_EPOCH":8787,"BSTAR":0.00071243532,"MEAN_MOTION_DOT":0.00029641,"MEAN_MOTION_DDOT":0},{"OBJECT_NAME":"IPERDRONE.0","OBJECT_ID":"2024-149BE","EPOCH":"2026-03-14T19:10:28.606944","MEAN_MOTION":15.55306429,"ECCENTRICITY":0.00033301,"INCLINATION":97.3811,"RA_OF_ASC_NODE":163.2184,"ARG_OF_PERICENTER":217.6443,"MEAN_ANOMALY":142.4579,"EPHEMERIS_TYPE":0,"CLASSIFICATION_TYPE":"U","NORAD_CAT_ID":60520,"ELEMENT_SET_NO":999,"REV_AT_EPOCH":8819,"BSTAR":0.0010142188,"MEAN_MOTION_DOT":0.00069161,"MEAN_MOTION_DDOT":0},{"OBJECT_NAME":"TRANSPORTER-11 OBJECT BF","OBJECT_ID":"2024-149BF","EPOCH":"2026-03-14T15:30:19.125216","MEAN_MOTION":15.60853522,"ECCENTRICITY":0.00035984,"INCLINATION":97.3818,"RA_OF_ASC_NODE":164.3166,"ARG_OF_PERICENTER":222.2122,"MEAN_ANOMALY":137.8859,"EPHEMERIS_TYPE":0,"CLASSIFICATION_TYPE":"U","NORAD_CAT_ID":60521,"ELEMENT_SET_NO":999,"REV_AT_EPOCH":8824,"BSTAR":0.0012410072,"MEAN_MOTION_DOT":0.00104623,"MEAN_MOTION_DDOT":0},{"OBJECT_NAME":"CONNECTA IOT-2","OBJECT_ID":"2024-149BG","EPOCH":"2026-03-14T22:21:38.459232","MEAN_MOTION":15.23086027,"ECCENTRICITY":0.00050297,"INCLINATION":97.3886,"RA_OF_ASC_NODE":153.5507,"ARG_OF_PERICENTER":302.6111,"MEAN_ANOMALY":57.464,"EPHEMERIS_TYPE":0,"CLASSIFICATION_TYPE":"U","NORAD_CAT_ID":60522,"ELEMENT_SET_NO":999,"REV_AT_EPOCH":8754,"BSTAR":0.00026943923,"MEAN_MOTION_DOT":6.284e-5,"MEAN_MOTION_DDOT":0},{"OBJECT_NAME":"PTD-R (TYVAK-0127)","OBJECT_ID":"2024-149BH","EPOCH":"2026-03-14T17:16:13.408032","MEAN_MOTION":15.71376876,"ECCENTRICITY":0.00044985,"INCLINATION":97.3754,"RA_OF_ASC_NODE":167.2466,"ARG_OF_PERICENTER":238.3341,"MEAN_ANOMALY":121.7484,"EPHEMERIS_TYPE":0,"CLASSIFICATION_TYPE":"U","NORAD_CAT_ID":60523,"ELEMENT_SET_NO":999,"REV_AT_EPOCH":8846,"BSTAR":0.0015442814,"MEAN_MOTION_DOT":0.00200538,"MEAN_MOTION_DDOT":0},{"OBJECT_NAME":"CONNECTA IOT-4","OBJECT_ID":"2024-149BJ","EPOCH":"2026-03-14T22:48:57.384288","MEAN_MOTION":15.38673876,"ECCENTRICITY":0.00046792,"INCLINATION":97.3833,"RA_OF_ASC_NODE":157.4469,"ARG_OF_PERICENTER":264.6451,"MEAN_ANOMALY":95.4261,"EPHEMERIS_TYPE":0,"CLASSIFICATION_TYPE":"U","NORAD_CAT_ID":60524,"ELEMENT_SET_NO":999,"REV_AT_EPOCH":8782,"BSTAR":0.00060455861,"MEAN_MOTION_DOT":0.00023064,"MEAN_MOTION_DDOT":0},{"OBJECT_NAME":"ORESAT0.5","OBJECT_ID":"2024-149BK","EPOCH":"2026-03-14T17:05:19.596768","MEAN_MOTION":15.4138973,"ECCENTRICITY":0.00047392,"INCLINATION":97.3754,"RA_OF_ASC_NODE":158.5211,"ARG_OF_PERICENTER":251.7947,"MEAN_ANOMALY":108.2784,"EPHEMERIS_TYPE":0,"CLASSIFICATION_TYPE":"U","NORAD_CAT_ID":60525,"ELEMENT_SET_NO":999,"REV_AT_EPOCH":8790,"BSTAR":0.0006730637,"MEAN_MOTION_DOT":0.00028103,"MEAN_MOTION_DDOT":0},{"OBJECT_NAME":"DEIMOS","OBJECT_ID":"2024-149BL","EPOCH":"2026-03-14T22:57:50.575968","MEAN_MOTION":15.40716131,"ECCENTRICITY":0.00045767,"INCLINATION":97.3814,"RA_OF_ASC_NODE":158.9447,"ARG_OF_PERICENTER":259.2547,"MEAN_ANOMALY":100.8184,"EPHEMERIS_TYPE":0,"CLASSIFICATION_TYPE":"U","NORAD_CAT_ID":60526,"ELEMENT_SET_NO":999,"REV_AT_EPOCH":8792,"BSTAR":0.00058008863,"MEAN_MOTION_DOT":0.00023661,"MEAN_MOTION_DDOT":0},{"OBJECT_NAME":"CUAVA-2","OBJECT_ID":"2024-149BM","EPOCH":"2026-03-14T22:48:04.073760","MEAN_MOTION":15.33787792,"ECCENTRICITY":0.0005758,"INCLINATION":97.377,"RA_OF_ASC_NODE":155.4589,"ARG_OF_PERICENTER":267.7043,"MEAN_ANOMALY":92.354,"EPHEMERIS_TYPE":0,"CLASSIFICATION_TYPE":"U","NORAD_CAT_ID":60527,"ELEMENT_SET_NO":999,"REV_AT_EPOCH":8771,"BSTAR":0.00052778923,"MEAN_MOTION_DOT":0.00017194,"MEAN_MOTION_DDOT":0},{"OBJECT_NAME":"ERNST","OBJECT_ID":"2024-149BN","EPOCH":"2026-03-14T16:41:18.266784","MEAN_MOTION":15.36556995,"ECCENTRICITY":0.00048549,"INCLINATION":97.3843,"RA_OF_ASC_NODE":156.8842,"ARG_OF_PERICENTER":272.0278,"MEAN_ANOMALY":88.041,"EPHEMERIS_TYPE":0,"CLASSIFICATION_TYPE":"U","NORAD_CAT_ID":60528,"ELEMENT_SET_NO":999,"REV_AT_EPOCH":8775,"BSTAR":0.00059002431,"MEAN_MOTION_DOT":0.00021012,"MEAN_MOTION_DDOT":0},{"OBJECT_NAME":"TORO","OBJECT_ID":"2024-149BQ","EPOCH":"2026-03-14T16:15:48.369024","MEAN_MOTION":14.96041339,"ECCENTRICITY":0.0001204,"INCLINATION":97.6843,"RA_OF_ASC_NODE":150.1129,"ARG_OF_PERICENTER":96.7236,"MEAN_ANOMALY":263.4122,"EPHEMERIS_TYPE":0,"CLASSIFICATION_TYPE":"U","NORAD_CAT_ID":60530,"ELEMENT_SET_NO":999,"REV_AT_EPOCH":8582,"BSTAR":0.0002768449,"MEAN_MOTION_DOT":3.052e-5,"MEAN_MOTION_DDOT":0},{"OBJECT_NAME":"HYPSO-2","OBJECT_ID":"2024-149BR","EPOCH":"2026-03-14T10:48:32.819040","MEAN_MOTION":14.98290407,"ECCENTRICITY":8.323e-5,"INCLINATION":97.6886,"RA_OF_ASC_NODE":151.1067,"ARG_OF_PERICENTER":66.0066,"MEAN_ANOMALY":294.1243,"EPHEMERIS_TYPE":0,"CLASSIFICATION_TYPE":"U","NORAD_CAT_ID":60531,"ELEMENT_SET_NO":999,"REV_AT_EPOCH":8586,"BSTAR":0.0002379074,"MEAN_MOTION_DOT":2.772e-5,"MEAN_MOTION_DDOT":0}]
